start=new Date('2022-02-21T00:00:00.000Z').valueOf();
sats=[{"GP_ID":"196513324","PERIOD":"95.592","LAUNCH_DATE":"2020-10-24","OBJECT_TYPE":"PAYLOAD","NORAD_CAT_ID":"46753","TLE_LINE2":"2 46753  53.0533 116.7671 0001514  70.9513 289.1639 15.06407760 73904","REF_FRAME":"TEME","OBJECT_ID":"2020-074Q","REV_AT_EPOCH":"7390","ELEMENT_SET_NO":"999","BSTAR":"0.00006899500000","FILE":"3310556","MEAN_ANOMALY":"289.1639","INCLINATION":"53.0533","TLE_LINE1":"1 46753U 20074Q   22051.65479429  .00000747  00000-0  68995-4 0  9993","MEAN_MOTION":"15.06407760","TIME_SYSTEM":"UTC","OBJECT_NAME":"STARLINK-1922","CLASSIFICATION_TYPE":"U","COUNTRY_CODE":"US","APOAPSIS":"548.238","PERIAPSIS":"546.141","ECCENTRICITY":"0.00015140","MEAN_ELEMENT_THEORY":"SGP4","EPHEMERIS_TYPE":"0","EPOCH":"2022-02-20T15:42:54.226656","MEAN_MOTION_DDOT":"0.0000000000000","SITE":"AFETR","MEAN_MOTION_DOT":"0.00000747","CENTER_NAME":"EARTH","ARG_OF_PERICENTER":"70.9513","RCS_SIZE":"LARGE","RA_OF_ASC_NODE":"116.7671","SEMIMAJOR_AXIS":"6925.325","DECAY_DATE":null},{"MEAN_ELEMENT_THEORY":"SGP4","ECCENTRICITY":"0.00014440","EPHEMERIS_TYPE":"0","EPOCH":"2022-02-20T20:40:08.607936","TIME_SYSTEM":"UTC","OBJECT_NAME":"STARLINK-1923","CLASSIFICATION_TYPE":"U","COUNTRY_CODE":"US","APOAPSIS":"548.198","PERIAPSIS":"546.198","ARG_OF_PERICENTER":"67.8490","RCS_SIZE":"LARGE","RA_OF_ASC_NODE":"115.8421","DECAY_DATE":null,"SEMIMAJOR_AXIS":"6925.333","MEAN_MOTION_DDOT":"0.0000000000000","SITE":"AFETR","MEAN_MOTION_DOT":"0.00001038","CENTER_NAME":"EARTH","LAUNCH_DATE":"2020-10-24","OBJECT_TYPE":"PAYLOAD","NORAD_CAT_ID":"46754","GP_ID":"196513045","PERIOD":"95.592","FILE":"3310556","MEAN_ANOMALY":"292.2652","INCLINATION":"53.0526","TLE_LINE1":"1 46754U 20074R   22051.86121074  .00001038  00000-0  88567-4 0  9998","MEAN_MOTION":"15.06405052","TLE_LINE2":"2 46754  53.0526 115.8421 0001444  67.8490 292.2652 15.06405052 73936","REF_FRAME":"TEME","OBJECT_ID":"2020-074R","REV_AT_EPOCH":"7393","BSTAR":"0.00008856700000","ELEMENT_SET_NO":"999"},{"RCS_SIZE":"LARGE","RA_OF_ASC_NODE":"121.7162","ARG_OF_PERICENTER":"59.1950","SEMIMAJOR_AXIS":"6925.339","DECAY_DATE":null,"MEAN_MOTION_DDOT":"0.0000000000000","SITE":"AFETR","CENTER_NAME":"EARTH","MEAN_MOTION_DOT":"0.00000850","EPHEMERIS_TYPE":"0","MEAN_ELEMENT_THEORY":"SGP4","ECCENTRICITY":"0.00014860","EPOCH":"2022-02-20T16:00:49.249152","COUNTRY_CODE":"US","CLASSIFICATION_TYPE":"U","OBJECT_NAME":"STARLINK-1924","TIME_SYSTEM":"UTC","APOAPSIS":"548.233","PERIAPSIS":"546.175","INCLINATION":"53.0529","MEAN_ANOMALY":"300.9185","FILE":"3310556","TLE_LINE1":"1 46755U 20074S   22051.66723668  .00000850  00000-0  75977-4 0  9996","MEAN_MOTION":"15.06403142","REF_FRAME":"TEME","TLE_LINE2":"2 46755  53.0529 121.7162 0001486  59.1950 300.9185 15.06403142 73834","ELEMENT_SET_NO":"999","BSTAR":"0.00007597700000","OBJECT_ID":"2020-074S","REV_AT_EPOCH":"7383","LAUNCH_DATE":"2020-10-24","NORAD_CAT_ID":"46755","OBJECT_TYPE":"PAYLOAD","GP_ID":"196512321","PERIOD":"95.592"},{"EPHEMERIS_TYPE":"0","MEAN_ELEMENT_THEORY":"SGP4","ECCENTRICITY":"0.00016510","EPOCH":"2022-02-20T11:02:12.957216","CLASSIFICATION_TYPE":"U","COUNTRY_CODE":"US","OBJECT_NAME":"STARLINK-1925","TIME_SYSTEM":"UTC","APOAPSIS":"548.327","PERIAPSIS":"546.040","RCS_SIZE":"LARGE","RA_OF_ASC_NODE":"122.6530","ARG_OF_PERICENTER":"59.1566","DECAY_DATE":null,"SEMIMAJOR_AXIS":"6925.319","MEAN_MOTION_DDOT":"0.0000000000000","SITE":"AFETR","CENTER_NAME":"EARTH","MEAN_MOTION_DOT":"0.00003879","LAUNCH_DATE":"2020-10-24","NORAD_CAT_ID":"46756","OBJECT_TYPE":"PAYLOAD","GP_ID":"196476263","PERIOD":"95.592","MEAN_ANOMALY":"300.9585","INCLINATION":"53.0545","FILE":"3310073","TLE_LINE1":"1 46756U 20074T   22051.45987219  .00003879  00000-0  27908-3 0  9992","MEAN_MOTION":"15.06409705","REF_FRAME":"TEME","TLE_LINE2":"2 46756  53.0545 122.6530 0001651  59.1566 300.9585 15.06409705 73801","ELEMENT_SET_NO":"999","BSTAR":"0.00027908000000","OBJECT_ID":"2020-074T","REV_AT_EPOCH":"7380"},{"OBJECT_ID":"2020-074U","REV_AT_EPOCH":"7381","BSTAR":"0.00028759000000","ELEMENT_SET_NO":"999","TLE_LINE2":"2 46757  53.0538 122.2354 0001584  59.7854 300.3291 15.06411300 73818","REF_FRAME":"TEME","TLE_LINE1":"1 46757U 20074U   22051.55572159  .00004006  00000-0  28759-3 0  9995","MEAN_MOTION":"15.06411300","FILE":"3310556","INCLINATION":"53.0538","MEAN_ANOMALY":"300.3291","PERIOD":"95.591","GP_ID":"196512824","OBJECT_TYPE":"PAYLOAD","NORAD_CAT_ID":"46757","LAUNCH_DATE":"2020-10-24","MEAN_MOTION_DOT":"0.00004006","CENTER_NAME":"EARTH","MEAN_MOTION_DDOT":"0.0000000000000","SITE":"AFETR","SEMIMAJOR_AXIS":"6925.314","DECAY_DATE":null,"ARG_OF_PERICENTER":"59.7854","RCS_SIZE":"LARGE","RA_OF_ASC_NODE":"122.2354","APOAPSIS":"548.276","PERIAPSIS":"546.082","OBJECT_NAME":"STARLINK-1926","TIME_SYSTEM":"UTC","CLASSIFICATION_TYPE":"U","COUNTRY_CODE":"US","EPOCH":"2022-02-20T13:20:14.345376","MEAN_ELEMENT_THEORY":"SGP4","ECCENTRICITY":"0.00015840","EPHEMERIS_TYPE":"0"},{"EPOCH":"2022-02-20T15:34:16.510080","EPHEMERIS_TYPE":"0","ECCENTRICITY":"0.00019070","MEAN_ELEMENT_THEORY":"SGP4","PERIAPSIS":"545.856","APOAPSIS":"548.497","CLASSIFICATION_TYPE":"U","COUNTRY_CODE":"US","TIME_SYSTEM":"UTC","OBJECT_NAME":"STARLINK-1928","SEMIMAJOR_AXIS":"6925.312","DECAY_DATE":null,"RA_OF_ASC_NODE":"121.8072","RCS_SIZE":"LARGE","ARG_OF_PERICENTER":"41.5220","CENTER_NAME":"EARTH","MEAN_MOTION_DOT":"0.00004135","SITE":"AFETR","MEAN_MOTION_DDOT":"0.0000000000000","NORAD_CAT_ID":"46758","OBJECT_TYPE":"PAYLOAD","LAUNCH_DATE":"2020-10-24","PERIOD":"95.591","GP_ID":"196513546","MEAN_MOTION":"15.06412014","TLE_LINE1":"1 46758U 20074V   22051.64880220  .00004135  00000-0  29624-3 0  9992","MEAN_ANOMALY":"318.5914","INCLINATION":"53.0517","FILE":"3310556","ELEMENT_SET_NO":"999","BSTAR":"0.00029624000000","REV_AT_EPOCH":"7383","OBJECT_ID":"2020-074V","REF_FRAME":"TEME","TLE_LINE2":"2 46758  53.0517 121.8072 0001907  41.5220 318.5914 15.06412014 73831"},{"PERIAPSIS":"545.988","APOAPSIS":"548.367","OBJECT_NAME":"STARLINK-1833","TIME_SYSTEM":"UTC","CLASSIFICATION_TYPE":"U","COUNTRY_CODE":"US","EPOCH":"2022-02-20T15:27:38.531808","MEAN_ELEMENT_THEORY":"SGP4","ECCENTRICITY":"0.00017180","EPHEMERIS_TYPE":"0","MEAN_MOTION_DOT":"0.00000339","CENTER_NAME":"EARTH","SITE":"AFETR","MEAN_MOTION_DDOT":"0.0000000000000","DECAY_DATE":null,"SEMIMAJOR_AXIS":"6925.312","ARG_OF_PERICENTER":"79.0131","RA_OF_ASC_NODE":"131.8169","RCS_SIZE":"LARGE","PERIOD":"95.591","GP_ID":"196511821","OBJECT_TYPE":"PAYLOAD","NORAD_CAT_ID":"46759","LAUNCH_DATE":"2020-10-24","REV_AT_EPOCH":"7368","OBJECT_ID":"2020-074W","ELEMENT_SET_NO":"999","BSTAR":"0.00004162700000","TLE_LINE2":"2 46759  53.0552 131.8169 0001718  79.0131 281.1051 15.06411794 73680","REF_FRAME":"TEME","MEAN_MOTION":"15.06411794","TLE_LINE1":"1 46759U 20074W   22051.64419597  .00000339  00000-0  41627-4 0  9998","FILE":"3310556","INCLINATION":"53.0552","MEAN_ANOMALY":"281.1051"},{"EPOCH":"2022-02-20T17:19:06.101760","EPHEMERIS_TYPE":"0","MEAN_ELEMENT_THEORY":"SGP4","ECCENTRICITY":"0.00016390","PERIAPSIS":"546.065","APOAPSIS":"548.335","CLASSIFICATION_TYPE":"U","COUNTRY_CODE":"US","TIME_SYSTEM":"UTC","OBJECT_NAME":"STARLINK-1896","SEMIMAJOR_AXIS":"6925.335","DECAY_DATE":null,"RA_OF_ASC_NODE":"131.4686","RCS_SIZE":"LARGE","ARG_OF_PERICENTER":"58.6001","CENTER_NAME":"EARTH","MEAN_MOTION_DOT":"0.00001331","SITE":"AFETR","MEAN_MOTION_DDOT":"0.0000000000000","NORAD_CAT_ID":"46760","OBJECT_TYPE":"PAYLOAD","LAUNCH_DATE":"2020-10-24","PERIOD":"95.592","GP_ID":"196512072","MEAN_MOTION":"15.06404520","TLE_LINE1":"1 46760U 20074X   22051.72159840  .00001331  00000-0  10821-3 0  9995","INCLINATION":"53.0538","MEAN_ANOMALY":"301.5148","FILE":"3310556","BSTAR":"0.00010821000000","ELEMENT_SET_NO":"999","REV_AT_EPOCH":"7370","OBJECT_ID":"2020-074X","REF_FRAME":"TEME","TLE_LINE2":"2 46760  53.0538 131.4686 0001639  58.6001 301.5148 15.06404520 73703"},{"LAUNCH_DATE":"2020-10-24","OBJECT_TYPE":"PAYLOAD","NORAD_CAT_ID":"46763","GP_ID":"196513325","PERIOD":"93.373","FILE":"3310556","MEAN_ANOMALY":"336.2967","INCLINATION":"53.0529","TLE_LINE1":"1 46763U 20074AA  22051.70876868 -.00000129  00000-0  65312-5 0  9994","MEAN_MOTION":"15.42200439","TLE_LINE2":"2 46763  53.0529 122.8065 0003252  23.8187 336.2967 15.42200439 73823","REF_FRAME":"TEME","OBJECT_ID":"2020-074AA","REV_AT_EPOCH":"7382","ELEMENT_SET_NO":"999","BSTAR":"0.00000653120000","ECCENTRICITY":"0.00032520","MEAN_ELEMENT_THEORY":"SGP4","EPHEMERIS_TYPE":"0","EPOCH":"2022-02-20T17:00:37.613952","OBJECT_NAME":"STARLINK-1902","TIME_SYSTEM":"UTC","CLASSIFICATION_TYPE":"U","COUNTRY_CODE":"US","APOAPSIS":"441.836","PERIAPSIS":"437.401","ARG_OF_PERICENTER":"23.8187","RCS_SIZE":"LARGE","RA_OF_ASC_NODE":"122.8065","DECAY_DATE":null,"SEMIMAJOR_AXIS":"6817.753","MEAN_MOTION_DDOT":"0.0000000000000","SITE":"AFETR","MEAN_MOTION_DOT":"-0.00000129","CENTER_NAME":"EARTH"},{"REF_FRAME":"TEME","TLE_LINE2":"2 46764  53.0556 132.0938 0001445  50.9318 309.1800 15.06405539 73682","ELEMENT_SET_NO":"999","BSTAR":"0.00019672000000","OBJECT_ID":"2020-074AB","REV_AT_EPOCH":"7368","MEAN_ANOMALY":"309.1800","INCLINATION":"53.0556","FILE":"3310556","TLE_LINE1":"1 46764U 20074AB  22051.58153982  .00002650  00000-0  19672-3 0  9992","MEAN_MOTION":"15.06405539","GP_ID":"196513046","PERIOD":"95.592","LAUNCH_DATE":"2020-10-24","NORAD_CAT_ID":"46764","OBJECT_TYPE":"PAYLOAD","MEAN_MOTION_DDOT":"0.0000000000000","SITE":"AFETR","CENTER_NAME":"EARTH","MEAN_MOTION_DOT":"0.00002650","RCS_SIZE":"LARGE","RA_OF_ASC_NODE":"132.0938","ARG_OF_PERICENTER":"50.9318","SEMIMAJOR_AXIS":"6925.332","DECAY_DATE":null,"COUNTRY_CODE":"US","CLASSIFICATION_TYPE":"U","TIME_SYSTEM":"UTC","OBJECT_NAME":"STARLINK-1903","APOAPSIS":"548.197","PERIAPSIS":"546.196","EPHEMERIS_TYPE":"0","MEAN_ELEMENT_THEORY":"SGP4","ECCENTRICITY":"0.00014450","EPOCH":"2022-02-20T13:57:25.040448"}];
